satname,norad_id,inclination_deg,eccentricity,mean_motion_rev_per_day,perigee_km,apogee_km,l1,l2
STARLINK-1556,46033,53.0525,0.0001432,15.06394568,546.2364939884137,548.2199185834934,1 46033U 20055G   26054.80342535 -.00000809  00000+0 -35404-4 0  9993,2 46033  53.0525 188.9553 0001432  84.0443 276.0709 15.06394568306771
STARLINK-1557,46034,53.0567,7.66e-05,15.06411134,546.646954956399,547.7079131276942,1 46034U 20055H   26054.67441608  .00002222  00000+0  16798-3 0  9993,2 46034  53.0567 189.5352 0000766  63.9444 296.1624 15.06411134306754
STARLINK-1558,46035,53.055,0.0001157,15.06387944,546.4472409850414,548.0497751916146,1 46035U 20055J   26054.74813406  .00005027  00000+0  35626-3 0  9998,2 46035  53.0550 189.2040 0001157  93.6242 266.4879 15.06387944306796
STARLINK-1560,46036,53.0559,0.0001214,15.06411436,546.3357754071694,548.0172415270263,1 46036U 20055K   26054.79972754  .00002186  00000+0  16555-3 0  9999,2 46036  53.0559 188.9731 0001214  81.6985 278.4141 15.06411436306805
STARLINK-1567,46038,53.0564,0.0001281,15.06409623,546.2949316140212,548.0691983584702,1 46038U 20055M   26054.74445529  .00002214  00000+0  16741-3 0  9990,2 46038  53.0564 189.2218 0001281  90.6574 269.4562 15.06409623306784
STARLINK-1569,46039,53.0569,0.0001393,15.06400567,546.2451193534371,548.1745209775354,1 46039U 20055N   26054.35373806  .00001201  00000+0  99473-4 0  9995,2 46039  53.0569 190.9754 0001393  91.2640 268.8509 15.06400567306725
STARLINK-1582,46043,53.0576,1.64e-05,15.06389799,547.1292464814042,547.3563989395889,1 46043U 20055S   26054.62648400 -.00006483  00000+0 -41688-3 0  9998,2 46043  53.0576 189.7459 0000164 194.7482 165.3503 15.06389799306766
STARLINK-1591,46045,53.0545,0.0001247,15.06408888,546.3207300640106,548.0479052006276,1 46045U 20055U   26054.78499344  .00001028  00000+0  87848-4 0  9995,2 46045  53.0545 189.0393 0001247  90.7643 269.3489 15.06408888306771
STARLINK-1524,46047,53.1382,0.0001153,15.25381221,488.8490840534205,490.43279364612044,1 46047U 20055W   26054.91667824  .00801062  00000+0  28953-1 0  9997,2 46047  53.1382 177.7001 0001153  83.5398 219.4145 15.25381221  5544
STARLINK-1527,46048,53.1348,8.39e-05,15.24643641,491.2793273122261,492.43211209059154,1 46048U 20055X   26054.91667824  .01791866  00000+0  65310-1 0  9997,2 46048  53.1348 177.8238 0000839 102.8419 151.2653 15.24643641  5788
STARLINK-1540,46051,53.1337,0.000142,15.24663319,490.82107749619627,492.77213864088844,1 46051U 20055AA  26054.91667824  .01128313  00000+0  41605-1 0  9993,2 46051  53.1337 177.7065 0001420  97.3430  42.6393 15.24663319  5738
STARLINK-1541,46052,53.1231,0.0001224,15.22639154,497.0421333729046,498.72538325453934,1 46052U 20055AB  26054.91667824  .00058431  00000+0  24739-2 0  9996,2 46052  53.1231 177.6471 0001224 117.7328 134.9378 15.22639154  5834
STARLINK-1543,46053,53.1289,0.0001685,15.23662925,493.64525811119256,495.9614390086581,1 46053U 20055AC  26054.91667824  .01085356  00000+0  41356-1 0  9997,2 46053  53.1289 177.7541 0001685  97.9300  75.8420 15.23662925  5831
STARLINK-1548,46054,53.128,0.0001554,15.23266207,494.9283777622313,497.064858490744,1 46054U 20055AD  26054.91667824  .01040904  00000+0  39723-1 0  9993,2 46054  53.1280 177.7367 0001554  85.4990  57.1636 15.23266207  5780
STARLINK-1554,46055,53.1201,0.0001796,15.22009867,498.5436507586337,501.0141981586994,1 46055U 20055AE  26054.91667824  .00060473  00000+0  26070-2 0  9998,2 46055  53.1201 177.7905 0001796  82.1712 111.2205 15.22009867  5786
STARLINK-1564,46058,53.128,0.0001549,15.2337063,494.6177241976284,496.7472334721715,1 46058U 20055AH  26054.91667824  .01063820  00000+0  40950-1 0  9993,2 46058  53.1280 178.2153 0001549  88.0064  65.8369 15.23370630  5738
STARLINK-1570,46059,53.1362,0.0001251,15.25053421,489.76574332626024,491.48430758502855,1 46059U 20055AJ  26054.91667824  .01759631  00000+0  63470-1 0  9998,2 46059  53.1362 177.8112 0001251  71.5614 250.8145 15.25053421  5835
STARLINK-1572,46060,53.1213,5.65e-05,15.21812123,499.98608576877086,500.7633575933205,1 46060U 20055AK  26054.91667824  .01020961  00000+0  40725-1 0  9995,2 46060  53.1213 177.8413 0000565 107.5646 217.4505 15.21812123  5723
STARLINK-1573,46061,53.1375,0.0001126,15.2548528,488.5553409601325,490.10189421721407,1 46061U 20055AL  26054.91667824  .01713047  00000+0  61147-1 0  9991,2 46061  53.1375 177.7926 0001126  85.9265 306.2901 15.25485280  5788
STARLINK-1577,46063,53.1392,8.95e-05,15.25735265,487.9638900824166,489.1930321499567,1 46063U 20055AN  26054.91667824  .01727490  00000+0  60186-1 0  9992,2 46063  53.1392 177.7377 0000895  76.7407 185.3607 15.25735265  5787
STARLINK-1583,46064,53.1386,9.97e-05,15.25709143,487.97221923853795,489.3414579299515,1 46064U 20055AP  26054.91667824  .01768475  00000+0  62522-1 0  9997,2 46064  53.1386 177.7533 0000997 110.3782 322.7192 15.25709143  5837
STARLINK-1525,46066,53.0538,0.0001533,15.06433031,546.048684115558,548.1719649452589,1 46066U 20055AR  26054.70665465 -.00005624  00000+0 -35865-3 0  9998,2 46066  53.0538 159.3904 0001533  91.2717 268.8448 15.06433031307194
STARLINK-1536,46070,53.0579,0.0001205,15.0639474,546.3931726837736,548.0621855714426,1 46070U 20055AV  26054.28648611  .00000407  00000+0  46215-4 0  9994,2 46070  53.0579 161.2752 0001205  90.7233 269.3894 15.06394740307149
STARLINK-1542,46073,53.0526,0.0001327,15.06391098,546.3198440463566,548.1578387946702,1 46073U 20055AY  26054.67717155 -.00002260  00000+0 -13292-3 0  9999,2 46073  53.0526 159.5230 0001327  91.6967 268.4174 15.06391098307193
STARLINK-1549,46074,53.0556,0.0001391,15.06408383,546.222552959226,548.1491777803703,1 46074U 20055AZ  26054.66242348  .00002697  00000+0  19982-3 0  9990,2 46074  53.0556 159.5890 0001391  90.3577 269.7571 15.06408383307183
STARLINK-1551,46075,53.0537,0.0001247,15.06417962,546.2929234418962,548.0200916426775,1 46075U 20055BA  26054.68822221  .00001737  00000+0  13540-3 0  9995,2 46075  53.0537 159.4734 0001247  88.3077 271.8055 15.06417962307196
STARLINK-1552,46076,53.0554,0.0001344,15.06410717,546.2479496398355,548.1094745032415,1 46076U 20055BB  26054.58133247  .00000730  00000+0  67886-4 0  9993,2 46076  53.0554 159.9547 0001344  91.1210 268.9933 15.06410717307162
STARLINK-1559,46077,53.0264,0.0003094,15.28261465,478.88708309492085,483.1315228271924,1 46077U 20055BC  26054.63603729  .00046679  00000+0  16747-2 0  9997,2 46077  53.0264 139.2893 0003094 341.1514  18.9369 15.28261465307439
